{"type": "FeatureCollection", "features": [ {"type": "Feature", "properties": {"norad_id": 35829, "name": "COSMOS 2251 DEB", "group": "cosmos-2251-debris", "lat": 52.07977838163242, "lon": -102.68939449175106, "alt_km": 632.5283909585305, "timestamp": "2025-12-12T16:50:33.543214+00:00", "meta": {"OBJECT_NAME": "COSMOS 2251 DEB", "OBJECT_ID": "1993-036ATB", "EPOCH": "2025-12-08T14:41:25.732032", "MEAN_MOTION": 14.76103447, "ECCENTRICITY": 0.0006283, "INCLINATION": 74.0249, "RA_OF_ASC_NODE": 106.8945, "ARG_OF_PERICENTER": 174.4564, "MEAN_ANOMALY": 185.6681, "EPHEMERIS_TYPE": 0, "CLASSIFICATION_TYPE": "U", "NORAD_CAT_ID": 35829, "ELEMENT_SET_NO": 999, "REV_AT_EPOCH": 87714, "BSTAR": 0.0032694, "MEAN_MOTION_DOT": 0.0002262, "MEAN_MOTION_DDOT": 0}, "tle": {"line1": "1 35829U 93036ATB 25342.61210338  .00022620  00000+0  32694-2 0  9995", "line2": "2 35829  74.0249 106.8945 0006283 174.4564 185.6681 14.76103447877147"}}, "geometry": {"type": "Point", "coordinates": [-102.68939449175106, 52.07977838163242]}}, {"type": "Feature", "properties": {"norad_id": 35830, "name": "COSMOS 2251 DEB", "group": "cosmos-2251-debris", "lat": 67.47062533496688, "lon": -49.22696020712875, "alt_km": 887.9177193924834, "timestamp": "2025-12-12T16:50:33.543225+00:00", "meta": {"OBJECT_NAME": "COSMOS 2251 DEB", "OBJECT_ID": "1993-036ATC", "EPOCH": "2025-12-06T12:06:38.215008", "MEAN_MOTION": 14.23927917, "ECCENTRICITY": 0.01224789, "INCLINATION": 73.8624, "RA_OF_ASC_NODE": 277.7805, "ARG_OF_PERICENTER": 247.2482, "MEAN_ANOMALY": 111.5683, "EPHEMERIS_TYPE": 0, "CLASSIFICATION_TYPE": "U", "NORAD_CAT_ID": 35830, "ELEMENT_SET_NO": 999, "REV_AT_EPOCH": 61175, "BSTAR": 0.0019622096, "MEAN_MOTION_DOT": 4.837e-05, "MEAN_MOTION_DDOT": 0}, "tle": {"line1": "1 35830U 93036ATC 25340.50460897  .00004837  00000+0  19622-2 0  9996", "line2": "2 35830  73.8624 277.7805 0122478 247.2482 111.5683 14.23927917611750"}}, "geometry": {"type": "Point", "coordinates": [-49.22696020712875, 67.47062533496688]}}, {"type": "Feature", "properties": {"norad_id": 35834, "name": "COSMOS 2251 DEB", "group": "cosmos-2251-debris", "lat": -73.25391500389001, "lon": -128.70444698581537, "alt_km": 933.8640884500592, "timestamp": "2025-12-12T16:50:33.543235+00:00", "meta": {"OBJECT_NAME": "COSMOS 2251 DEB", "OBJECT_ID": "1993-036ATG", "EPOCH": "2025-12-11T22:50:10.190976", "MEAN_MOTION": 14.12978369, "ECCENTRICITY": 0.0109244, "INCLINATION": 73.9316, "RA_OF_ASC_NODE": 305.9432, "ARG_OF_PERICENTER": 106.3479, "MEAN_ANOMALY": 313.2595, "EPHEMERIS_TYPE": 0, "CLASSIFICATION_TYPE": "U", "NORAD_CAT_ID": 35834, "ELEMENT_SET_NO": 999, "REV_AT_EPOCH": 66252, "BSTAR": 0.00042126, "MEAN_MOTION_DOT": 8.06e-06, "MEAN_MOTION_DDOT": 0}, "tle": {"line1": "1 35834U 93036ATG 25345.95150684  .00000806  00000+0  42126-3 0  9992", "line2": "2 35834  73.9316 305.9432 0109244 106.3479 313.2595 14.12978369662529"}}, "geometry": {"type": "Point", "coordinates": [-128.70444698581537, -73.25391500389001]}}, {"type": "Feature", "properties": {"norad_id": 35835, "name": "COSMOS 2251 DEB", "group": "cosmos-2251-debris", "lat": -33.8744089688229, "lon": 99.55983667626937, "alt_km": 1164.7711338145582, "timestamp": "2025-12-12T16:50:33.543245+00:00", "meta": {"OBJECT_NAME": "COSMOS 2251 DEB", "OBJECT_ID": "1993-036ATH", "EPOCH": "2025-12-11T12:02:32.949600", "MEAN_MOTION": 13.82870055, "ECCENTRICITY": 0.02901062, "INCLINATION": 74.0631, "RA_OF_ASC_NODE": 270.5178, "ARG_OF_PERICENTER": 52.3891, "MEAN_ANOMALY": 310.3189, "EPHEMERIS_TYPE": 0, "CLASSIFICATION_TYPE": "U", "NORAD_CAT_ID": 35835, "ELEMENT_SET_NO": 999, "REV_AT_EPOCH": 61682, "BSTAR": 0.0024457377, "MEAN_MOTION_DOT": 3.663e-05, "MEAN_MOTION_DDOT": 0}, "tle": {"line1": "1 35835U 93036ATH 25345.50177025  .00003663  00000+0  24457-2 0  9992", "line2": "2 35835  74.0631 270.5178 0290106  52.3891 310.3189 13.82870055616820"}}, "geometry": {"type": "Point", "coordinates": [99.55983667626937, -33.8744089688229]}}, {"type": "Feature", "properties": {"norad_id": 35836, "name": "COSMOS 2251 DEB", "group": "cosmos-2251-debris", "lat": 56.58580913401416, "lon": -161.2663107690348, "alt_km": 669.2053815378313, "timestamp": "2025-12-12T16:50:33.543255+00:00", "meta": {"OBJECT_NAME": "COSMOS 2251 DEB", "OBJECT_ID": "1993-036ATJ", "EPOCH": "2025-12-10T18:51:50.352480", "MEAN_MOTION": 14.70892448, "ECCENTRICITY": 0.00244147, "INCLINATION": 74.0314, "RA_OF_ASC_NODE": 176.7294, "ARG_OF_PERICENTER": 235.542, "MEAN_ANOMALY": 124.3445, "EPHEMERIS_TYPE": 0, "CLASSIFICATION_TYPE": "U", "NORAD_CAT_ID": 35836, "ELEMENT_SET_NO": 999, "REV_AT_EPOCH": 63491, "BSTAR": 0.0027962773, "MEAN_MOTION_DOT": 0.00017206, "MEAN_MOTION_DDOT": 0}, "tle": {"line1": "1 35836U 93036ATJ 25344.78599945  .00017206  00000+0  27963-2 0  9994", "line2": "2 35836  74.0314 176.7294 0024414 235.5420 124.3445 14.70892448634911"}}, "geometry": {"type": "Point", "coordinates": [-161.2663107690348, 56.58580913401416]}}, {"type": "Feature", "properties": {"norad_id": 35837, "name": "COSMOS 2251 DEB", "group": "cosmos-2251-debris", "lat": -3.8217737273244077, "lon": -153.42711144427213, "alt_km": 1229.4103514782328, "timestamp": "2025-12-12T16:50:33.543265+00:00", "meta": {"OBJECT_NAME": "COSMOS 2251 DEB", "OBJECT_ID": "1993-036ATK", "EPOCH": "2025-12-09T22:01:37.127712", "MEAN_MOTION": 13.63437069, "ECCENTRICITY": 0.04220669, "INCLINATION": 73.7216, "RA_OF_ASC_NODE": 212.3216, "ARG_OF_PERICENTER": 133.5531, "MEAN_ANOMALY": 246.304, "EPHEMERIS_TYPE": 0, "CLASSIFICATION_TYPE": "U", "NORAD_CAT_ID": 35837, "ELEMENT_SET_NO": 999, "REV_AT_EPOCH": 57938, "BSTAR": 0.0025074688, "MEAN_MOTION_DOT": 3.597e-05, "MEAN_MOTION_DDOT": 0}, "tle": {"line1": "1 35837U 93036ATK 25343.91779083  .00003597  00000+0  25075-2 0  9992", "line2": "2 35837  73.7216 212.3216 0422066 133.5531 246.3040 13.63437069579385"}}, "geometry": {"type": "Point", "coordinates": [-153.42711144427213, -3.8217737273244077]}}, {"type": "Feature", "properties": {"norad_id": 35839, "name": "COSMOS 2251 DEB", "group": "cosmos-2251-debris", "lat": -7.114121665147656, "lon": -38.42700119955163, "alt_km": 414.17394585175134, "timestamp": "2025-12-12T16:50:33.543276+00:00", "meta": {"OBJECT_NAME": "COSMOS 2251 DEB", "OBJECT_ID": "1993-036ATM", "EPOCH": "2025-12-11T22:18:32.554080", "MEAN_MOTION": 15.51668386, "ECCENTRICITY": 0.0001468, "INCLINATION": 74.2069, "RA_OF_ASC_NODE": 325.2781, "ARG_OF_PERICENTER": 109.6337, "MEAN_ANOMALY": 250.5036, "EPHEMERIS_TYPE": 0, "CLASSIFICATION_TYPE": "U", "NORAD_CAT_ID": 35839, "ELEMENT_SET_NO": 999, "REV_AT_EPOCH": 88555, "BSTAR": 0.0066118, "MEAN_MOTION_DOT": 0.00414791, "MEAN_MOTION_DDOT": 0}, "tle": {"line1": "1 35839U 93036ATM 25345.92954345  .00414791  00000+0  66118-2 0  9998", "line2": "2 35839  74.2069 325.2781 0001468 109.6337 250.5036 15.51668386885555"}}, "geometry": {"type": "Point", "coordinates": [-38.42700119955163, -7.114121665147656]}}, {"type": "Feature", "properties": {"norad_id": 35840, "name": "COSMOS 2251 DEB", "group": "cosmos-2251-debris", "lat": 24.313946986434853, "lon": -29.23350611805538, "alt_km": 769.2482284959124, "timestamp": "2025-12-12T16:50:33.543286+00:00", "meta": {"OBJECT_NAME": "COSMOS 2251 DEB", "OBJECT_ID": "1993-036ATN", "EPOCH": "2025-12-12T04:26:56.474304", "MEAN_MOTION": 14.37821687, "ECCENTRICITY": 0.01162768, "INCLINATION": 73.9307, "RA_OF_ASC_NODE": 159.2062, "ARG_OF_PERICENTER": 61.7798, "MEAN_ANOMALY": 299.5037, "EPHEMERIS_TYPE": 0, "CLASSIFICATION_TYPE": "U", "NORAD_CAT_ID": 35840, "ELEMENT_SET_NO": 999, "REV_AT_EPOCH": 85283, "BSTAR": 0.0026691111, "MEAN_MOTION_DOT": 8.683e-05, "MEAN_MOTION_DDOT": 0}, "tle": {"line1": "1 35840U 93036ATN 25346.18537586  .00008683  00000+0  26691-2 0  9994", "line2": "2 35840  73.9307 159.2062 0116276  61.7798 299.5037 14.37821687852835"}}, "geometry": {"type": "Point", "coordinates": [-29.23350611805538, 24.313946986434853]}}, {"type": "Feature", "properties": {"norad_id": 35883, "name": "COSMOS 2251 DEB", "group": "cosmos-2251-debris", "lat": 27.973317278086384, "lon": -118.65037866070891, "alt_km": 682.4520287313326, "timestamp": "2025-12-12T16:50:33.543297+00:00", "meta": {"OBJECT_NAME": "COSMOS 2251 DEB", "OBJECT_ID": "1993-036ATW", "EPOCH": "2025-12-08T12:53:27.979296", "MEAN_MOTION": 14.5058807, "ECCENTRICITY": 0.00839123, "INCLINATION": 74.0248, "RA_OF_ASC_NODE": 77.932, "ARG_OF_PERICENTER": 208.211, "MEAN_ANOMALY": 163.6192, "EPHEMERIS_TYPE": 0, "CLASSIFICATION_TYPE": "U", "NORAD_CAT_ID": 35883, "ELEMENT_SET_NO": 999, "REV_AT_EPOCH": 62325, "BSTAR": 0.00065719246, "MEAN_MOTION_DOT": 2.667e-05, "MEAN_MOTION_DDOT": 0}, "tle": {"line1": "1 35883U 93036ATW 25342.53712939  .00002667  00000+0  65719-3 0  9994", "line2": "2 35883  74.0248  77.9320 0083912 208.2110 163.6192 14.50588070623253"}}, "geometry": {"type": "Point", "coordinates": [-118.65037866070891, 27.973317278086384]}}, {"type": "Feature", "properties": {"norad_id": 35884, "name": "COSMOS 2251 DEB", "group": "cosmos-2251-debris", "lat": -53.4393190240455, "lon": 178.8549606953575, "alt_km": 843.2529962625895, "timestamp": "2025-12-12T16:50:33.543307+00:00", "meta": {"OBJECT_NAME": "COSMOS 2251 DEB", "OBJECT_ID": "1993-036ATX", "EPOCH": "2025-12-09T17:00:47.209536", "MEAN_MOTION": 14.25629404, "ECCENTRICITY": 0.01087033, "INCLINATION": 73.9912, "RA_OF_ASC_NODE": 341.4952, "ARG_OF_PERICENTER": 129.2859, "MEAN_ANOMALY": 231.7992, "EPHEMERIS_TYPE": 0, "CLASSIFICATION_TYPE": "U", "NORAD_CAT_ID": 35884, "ELEMENT_SET_NO": 999, "REV_AT_EPOCH": 22314, "BSTAR": 0.001725321, "MEAN_MOTION_DOT": 4.326e-05, "MEAN_MOTION_DDOT": 0}, "tle": {"line1": "1 35884U 93036ATX 25343.70887974  .00004326  00000+0  17253-2 0  9990", "line2": "2 35884  73.9912 341.4952 0108703 129.2859 231.7992 14.25629404223146"}}, "geometry": {"type": "Point", "coordinates": [178.8549606953575, -53.4393190240455]}}]}